{
"type": "FeatureCollection",
"name": "Police_Stations",
"crs": { "type": "name", "properties": { "name": "urn:ogc:def:crs:OGC:1.3:CRS84" } },
"features": [
{"type":"Feature","properties":{"objectid":1,"dist_num":7,"location":"Bustleton Ave & Bowler St","phone__":"686-3070"},"geometry":{"type":"Point","coordinates":[-75.032697789745001,40.090971623974198]}},
{"type":"Feature","properties":{"objectid":2,"dist_num":14,"location":"E Haines St & Germantown Ave","phone__":"686-3140"},"geometry":{"type":"Point","coordinates":[-75.176998793868606,40.0384235742656]}},
{"type":"Feature","properties":{"objectid":3,"dist_num":8,"location":"Academy Rd & Red Lion Rd","phone__":"686-3080"},"geometry":{"type":"Point","coordinates":[-74.997293649177095,40.080097744430503]}},
{"type":"Feature","properties":{"objectid":4,"dist_num":2,"location":"7306 Castor Ave","phone__":"686-3020"},"geometry":{"type":"Point","coordinates":[-75.066046838267795,40.051182322309202]}},
{"type":"Feature","properties":{"objectid":5,"dist_num":35,"location":"N Broad St & W Champlost St","phone__":"686-3350"},"geometry":{"type":"Point","coordinates":[-75.143651620129802,40.044493899005502]}},
{"type":"Feature","properties":{"objectid":6,"dist_num":15,"location":"Harbison Ave & Levick St","phone__":"686-3150"},"geometry":{"type":"Point","coordinates":[-75.063243507981497,40.031480057994401]}},
{"type":"Feature","properties":{"objectid":7,"dist_num":5,"location":"Ridge Ave & Cinnaminson St","phone__":"686-3050"},"geometry":{"type":"Point","coordinates":[-75.224397119735897,40.040191291004803]}},
{"type":"Feature","properties":{"objectid":8,"dist_num":39,"location":"2201 W Hunting Park Ave","phone__":"686-3390"},"geometry":{"type":"Point","coordinates":[-75.164253112138596,40.010893586472001]}},
{"type":"Feature","properties":{"objectid":9,"dist_num":25,"location":"3901 Whitaker Ave","phone__":"686-3250"},"geometry":{"type":"Point","coordinates":[-75.122493202289306,40.008732251194502]}},
{"type":"Feature","properties":{"objectid":10,"dist_num":22,"location":"N 17th St & W Montgomery Ave","phone__":"686-3220"},"geometry":{"type":"Point","coordinates":[-75.162402322141901,39.9807782533953]}},
{"type":"Feature","properties":{"objectid":11,"dist_num":24,"location":"3901 Whitaker Ave","phone__":"686-3240"},"geometry":{"type":"Point","coordinates":[-75.122493202289306,40.008732251194502]}},
{"type":"Feature","properties":{"objectid":12,"dist_num":26,"location":"E Girard Ave & E Montgomery Ave","phone__":"686-3260"},"geometry":{"type":"Point","coordinates":[-75.127080105232906,39.971314831866898]}},
{"type":"Feature","properties":{"objectid":13,"dist_num":19,"location":"N 61st St & W Thompson St","phone__":"686-3190"},"geometry":{"type":"Point","coordinates":[-75.240902621934197,39.971310194545403]}},
{"type":"Feature","properties":{"objectid":14,"dist_num":16,"location":"W Lancaster Ave & N 39th St","phone__":"686-3160"},"geometry":{"type":"Point","coordinates":[-75.200153019437195,39.961925773192903]}},
{"type":"Feature","properties":{"objectid":15,"dist_num":9,"location":"400 N Broad St","phone__":"686-3090"},"geometry":{"type":"Point","coordinates":[-75.162146717307607,39.959739240440399]}},
{"type":"Feature","properties":{"objectid":16,"dist_num":18,"location":"S 55th St & Pine St","phone__":"686-3180"},"geometry":{"type":"Point","coordinates":[-75.232168702177006,39.954283956121898]}},
{"type":"Feature","properties":{"objectid":17,"dist_num":17,"location":"S 20th St & Federal St","phone__":"686-3170"},"geometry":{"type":"Point","coordinates":[-75.176753730764204,39.937236154480303]}},
{"type":"Feature","properties":{"objectid":18,"dist_num":3,"location":"S 11th St & Wharton St","phone__":"686-3030"},"geometry":{"type":"Point","coordinates":[-75.162285311186295,39.933440531574497]}},
{"type":"Feature","properties":{"objectid":19,"dist_num":12,"location":"S 65th St & Woodland Ave","phone__":"686-3120"},"geometry":{"type":"Point","coordinates":[-75.234340459326503,39.925552931861297]}},
{"type":"Feature","properties":{"objectid":20,"dist_num":1,"location":"S 24th St & Wolf St","phone__":"686-3010"},"geometry":{"type":"Point","coordinates":[-75.186928742273196,39.924057584197598]}}
]
}
