{"type":"FeatureCollection","features":[{"type":"Feature","id":1,"geometry":{"type":"Polygon","coordinates":[[[-75.175966999484416,39.972428199934683],[-75.161375598937397,39.971261577498055],[-75.14678469983852,39.970093100147061],[-75.143651799611661,39.986042499981536],[-75.158306945340215,39.987917635492195],[-75.172962899765906,39.989790900060335],[-75.175966999484416,39.972428199934683]]]},"properties":{"OBJECTID":1,"Name":"Original Proposed Area of Focus","FolderPath":"Potential Priority Impact Area and North Philly Partnership Area/Original Proposed Area of Focus","SymbolID":0,"AltMode":0,"Base":0,"Clamped":-1,"Extruded":0,"Snippet":"","PopupInfo":"","Shape_Length":28806.044848742924,"Shape_Area":50683554.243623294}},{"type":"Feature","id":2,"geometry":{"type":"Polygon","coordinates":[[[-75.149974100455012,40.014837399853221],[-75.15382800027885,39.997794700044672],[-75.143729900054922,40.001343800220333],[-75.144201999863299,40.002001300080195],[-75.143794299890487,40.003529899724228],[-75.143300699819278,40.003480599591256],[-75.14312910007483,40.004253099585171],[-75.143386599668958,40.005107800318889],[-75.141777199477701,40.012717399879925],[-75.147248900562658,40.013374800417139],[-75.147184599810146,40.014114299948709],[-75.147935599835122,40.013933600304419],[-75.147849799510766,40.014558100439046],[-75.149974100455012,40.014837399853221]]]},"properties":{"OBJECTID":2,"Name":"Bethune Catchment Area","FolderPath":"Potential Priority Impact Area and North Philly Partnership Area/Bethune Catchment Area","SymbolID":1,"AltMode":0,"Base":0,"Clamped":-1,"Extruded":0,"Snippet":"","PopupInfo":"","Shape_Length":16681.158190589842,"Shape_Area":12639139.276378639}},{"type":"Feature","id":3,"geometry":{"type":"Polygon","coordinates":[[[-75.156155699703788,39.986316300150513],[-75.159352899731246,39.971616599774016],[-75.15235769974575,39.971013599821248],[-75.151506500013397,39.974932800289444],[-75.148960199497381,39.974603900243807],[-75.147372299825477,39.981964800001442],[-75.149975899775853,39.982348400076937],[-75.149317799426711,39.985384600358771],[-75.156155699703788,39.986316300150513]]]},"properties":{"OBJECTID":3,"Name":"Dunbar Catchment Area","FolderPath":"Potential Priority Impact Area and North Philly Partnership Area/Dunbar Catchment Area","SymbolID":2,"AltMode":0,"Base":0,"Clamped":-1,"Extruded":0,"Snippet":"","PopupInfo":"","Shape_Length":16101.506819573056,"Shape_Area":12511248.294817239}},{"type":"Feature","id":4,"geometry":{"type":"Polygon","coordinates":[[[-75.159136799514101,39.977352999642562],[-75.160896300172723,39.969087200001965],[-75.160166699614223,39.968999400265275],[-75.160377700115319,39.96816620036433],[-75.146401599472966,39.964106899913212],[-75.14336179980296,39.97691999971692],[-75.159580199771412,39.978997300402384],[-75.159902099611458,39.977440699636432],[-75.159136799514101,39.977352999642562]]]},"properties":{"OBJECTID":4,"Name":"CHOICE Neighborhood - Harrison Homes Catchment","FolderPath":"Potential Priority Impact Area and North Philly Partnership Area/CHOICE Neighborhood - Harrison Homes","SymbolID":3,"AltMode":0,"Base":0,"Clamped":-1,"Extruded":0,"Snippet":"","PopupInfo":"","Shape_Length":17898.2174551727,"Shape_Area":18843567.693982281}},{"type":"Feature","id":5,"geometry":{"type":"Polygon","coordinates":[[[-75.160297200379077,39.971535300319779],[-75.167363900243387,39.972417800440489],[-75.165826099654879,39.979713099870779],[-75.179015400155066,39.981456000275116],[-75.180975199612263,39.972839799978829],[-75.176462000057455,39.972225899699652],[-75.170968799667293,39.972839799872524],[-75.160297200379077,39.971535300319779]]]},"properties":{"OBJECTID":5,"Name":"CHOICE Neighborhood - Sharswood Bulmberg","FolderPath":"Potential Priority Impact Area and North Philly Partnership Area/CHOICE Neighborhood - Sharswood Blumberg","SymbolID":4,"AltMode":0,"Base":0,"Clamped":-1,"Extruded":0,"Snippet":"","PopupInfo":"","Shape_Length":17504.342215934212,"Shape_Area":11185590.508403735}},{"type":"Feature","id":6,"geometry":{"type":"Polygon","coordinates":[[[-75.158007800078806,39.977256199964238],[-75.155752400502649,39.987868400428972],[-75.162428099653241,39.988759800252673],[-75.164707399720115,39.978109400091377],[-75.158007800078806,39.977256199964238]]]},"properties":{"OBJECTID":6,"Name":"North Central Special Service District","FolderPath":"Potential Priority Impact Area and North Philly Partnership Area/North Central Special Service District","SymbolID":5,"AltMode":0,"Base":0,"Clamped":-1,"Extruded":0,"Snippet":"","PopupInfo":"","Shape_Length":11650.831418229032,"Shape_Area":7459837.4772845525}},{"type":"Feature","id":7,"geometry":{"type":"Polygon","coordinates":[[[-75.153651599512514,39.998445200135727],[-75.141120300145232,39.996845200202273],[-75.139031699669872,40.006006200288247],[-75.164609299992762,40.009490600035683],[-75.166755099552333,40.000001299643948],[-75.153651599512514,39.998445200135727]]]},"properties":{"OBJECTID":7,"Name":"Health and Medical Science Innovation Campus","FolderPath":"Potential Priority Impact Area and North Philly Partnership Area/District 1 - Health and Medical Science Innovation Campus","SymbolID":6,"AltMode":0,"Base":0,"Clamped":-1,"Extruded":0,"Snippet":"","PopupInfo":"District 1 – Health and Medical Science Innovation Campus - Indiana Ave to Venango","Shape_Length":21446.909830908564,"Shape_Area":25011938.159994215}},{"type":"Feature","id":8,"geometry":{"type":"Polygon","coordinates":[[[-75.172664700414629,39.973081699807608],[-75.159567499787627,39.971123300061407],[-75.14678469983852,39.970093100147061],[-75.143510900082788,39.984821699960513],[-75.169317299675939,39.988000300002724],[-75.172664700414629,39.973081699807608]]]},"properties":{"OBJECTID":8,"Name":"District 2 - Main Campus","FolderPath":"Potential Priority Impact Area and North Philly Partnership Area/District 2 - Main Campus","SymbolID":7,"AltMode":0,"Base":0,"Clamped":-1,"Extruded":0,"Snippet":"","PopupInfo":"District 2 – Main Campus - Girard to Susquehanna\u00A0","Shape_Length":25623.57474341432,"Shape_Area":40741546.685911223}},{"type":"Feature","id":9,"geometry":{"type":"Polygon","coordinates":[[[-75.15382800027885,39.997794700044672],[-75.163698500033064,39.993947999912159],[-75.163183499597309,39.993306900388887],[-75.162840200551699,39.993454900116944],[-75.164127700409736,39.987207700212124],[-75.165779899817863,39.987429700013955],[-75.166033800062607,39.985880499833215],[-75.159853900398389,39.985058400282149],[-75.160478900252599,39.982142100022891],[-75.157101999945041,39.981733100127791],[-75.15382800027885,39.997794700044672]]]},"properties":{"OBJECTID":9,"Name":"Duckery Catchment Area","FolderPath":"Potential Priority Impact Area and North Philly Partnership Area/Duckrey Catchment Area","SymbolID":8,"AltMode":0,"Base":0,"Clamped":-1,"Extruded":0,"Snippet":"","PopupInfo":"","Shape_Length":16542.544696922399,"Shape_Area":10418343.883070247}},{"type":"Feature","id":10,"geometry":{"type":"Polygon","coordinates":[[[-75.157530799574772,39.984750300236001],[-75.158725599886779,39.978749599713552],[-75.145175000469209,39.977013400214695],[-75.144588500366794,39.980071800081532],[-75.142757400037709,39.979775799743045],[-75.142328100362974,39.981407100017805],[-75.14375860008974,39.981604400135573],[-75.143973099623892,39.983177400279601],[-75.143000400294511,39.987758900011727],[-75.156375700482229,39.989594800273572],[-75.157180299894151,39.986531399792376],[-75.15951209971324,39.986882100166142],[-75.15994120008834,39.985051699956614],[-75.157530799574772,39.984750300236001]]]},"properties":{"OBJECTID":10,"Name":"Line 1","FolderPath":"Potential Priority Impact Area and North Philly Partnership Area/CHOICE Neighborhood - North Central","SymbolID":9,"AltMode":0,"Base":0,"Clamped":-1,"Extruded":0,"Snippet":"","PopupInfo":"","Shape_Length":17965.848726932629,"Shape_Area":16110150.000906454}}]}