{"type":"FeatureCollection","features":[{"type":"Feature","id":1,"geometry":null,"properties":{"FID":1,"PROPERTY_A":"Kresge West Building","PROPERTY_1":"1402-1410 W. Tioga Street","CAMPUS":"HSC","BUILDING__":"568","BUILDING_C":" ","Ownership_":"Temple University","fact_id":95,"Shape__Length":128.2256677448467,"Shape__Area":1016.1155484642339}},{"type":"Feature","id":2,"geometry":null,"properties":{"FID":2,"PROPERTY_A":"Kresge Hall","PROPERTY_1":"3440 N. Broad Street","CAMPUS":"HSC","BUILDING__":"557","BUILDING_C":"KRESGE","Ownership_":"Commonwealth","fact_id":93,"Shape__Length":265.86888482367112,"Shape__Area":2247.1518074133328}},{"type":"Feature","id":3,"geometry":null,"properties":{"FID":3,"PROPERTY_A":"Central Storage (Carlisle)","PROPERTY_1":"3430 N. Carlisle Street","CAMPUS":"HSC","BUILDING__":"510","BUILDING_C":" ","Ownership_":"Temple University","fact_id":87,"Shape__Length":197.20939247829139,"Shape__Area":1550.5112645058912}},{"type":"Feature","id":4,"geometry":null,"properties":{"FID":4,"PROPERTY_A":"Chiller Building","PROPERTY_1":"3401-3417 Carlisle Street","CAMPUS":"HSC","BUILDING__":"730","BUILDING_C":" ","Ownership_":"Temple University","fact_id":115,"Shape__Length":156.33921295088737,"Shape__Area":1211.3567517127667}},{"type":"Feature","id":5,"geometry":null,"properties":{"FID":5,"PROPERTY_A":"Student Faculty Center","PROPERTY_1":"3340 N. Broad Street","CAMPUS":"HSC","BUILDING__":"603","BUILDING_C":"SFC","Ownership_":"Commonwealth","fact_id":101,"Shape__Length":278.62735967240894,"Shape__Area":3983.5743259585306}},{"type":"Feature","id":6,"geometry":null,"properties":{"FID":6,"PROPERTY_A":"Steam Plant","PROPERTY_1":"1218 W. Ontario Street","CAMPUS":"HSC","BUILDING__":"729","BUILDING_C":" ","Ownership_":"Commonwealth","fact_id":114,"Shape__Length":151.36092515037049,"Shape__Area":1132.8863299935233}},{"type":"Feature","id":7,"geometry":null,"properties":{"FID":7,"PROPERTY_A":"Medical Office Building (MOB)","PROPERTY_1":"3322 N. Broad Street","CAMPUS":"HSC","BUILDING__":"511","BUILDING_C":" ","Ownership_":"Temple University","fact_id":88,"Shape__Length":155.36001215982563,"Shape__Area":1469.0158761374619}},{"type":"Feature","id":8,"geometry":null,"properties":{"FID":8,"PROPERTY_A":"Pharmacy Allied Health Building","PROPERTY_1":"3307-3323 N. Broad Street","CAMPUS":"HSC","BUILDING__":"602","BUILDING_C":"TUSP","Ownership_":"Commonwealth","fact_id":100,"Shape__Length":306.23174999980262,"Shape__Area":4273.0230338021756}},{"type":"Feature","id":9,"geometry":null,"properties":{"FID":9,"PROPERTY_A":"Dental School (Original)","PROPERTY_1":"3223 N. Broad Street","CAMPUS":"HSC","BUILDING__":"600","BUILDING_C":"OLDDNT","Ownership_":"Temple University","fact_id":98,"Shape__Length":367.39930533772383,"Shape__Area":8197.9332088913925}},{"type":"Feature","id":10,"geometry":null,"properties":{"FID":10,"PROPERTY_A":"Medical Education and \nResearch Building (MERB)","PROPERTY_1":"3500 N. Broad Street","CAMPUS":"HSC","BUILDING__":"561","BUILDING_C":"MERB","Ownership_":"Joint","fact_id":94,"Shape__Length":468.00214468227568,"Shape__Area":10541.603257447698}},{"type":"Feature","id":11,"geometry":null,"properties":{"FID":11,"PROPERTY_A":"Facilities Mgmt-Germantown Ave.","PROPERTY_1":"3525-3529 Germantown Avenue","CAMPUS":"HSC","BUILDING__":"651","BUILDING_C":" ","Ownership_":"Temple University","fact_id":103,"Shape__Length":110.43478993487179,"Shape__Area":677.24661976134269}},{"type":"Feature","id":12,"geometry":null,"properties":{"FID":12,"PROPERTY_A":"Ford Building - 3511 N. 13th","PROPERTY_1":"3511 N. 13th Street","CAMPUS":"HSC","BUILDING__":"536","BUILDING_C":" ","Ownership_":"Temple University","fact_id":91,"Shape__Length":147.58194680625235,"Shape__Area":881.39945577321998}},{"type":"Feature","id":13,"geometry":null,"properties":{"FID":13,"PROPERTY_A":"Kornberg School of Dentistry","PROPERTY_1":"3201 N. Broad Street","CAMPUS":"HSC","BUILDING__":"601","BUILDING_C":"NEWDNT","Ownership_":"Commonwealth","fact_id":99,"Shape__Length":408.03672973171291,"Shape__Area":7503.9781006594367}},{"type":"Feature","id":14,"geometry":null,"properties":{"FID":14,"PROPERTY_A":"Medical Research Building (MRB)","PROPERTY_1":"3428 N. Broad Street","CAMPUS":"HSC","BUILDING__":"556","BUILDING_C":"MEDRB","Ownership_":"Temple University","fact_id":92,"Shape__Length":178.98429997440925,"Shape__Area":1852.8784121847314}},{"type":"Feature","id":15,"geometry":null,"properties":{"FID":15,"PROPERTY_A":"Medical Office Building (MOB) Annex","PROPERTY_1":"3322 N. Broad Street","CAMPUS":"HSC","BUILDING__":"512","BUILDING_C":" ","Ownership_":"Temple University","fact_id":89,"Shape__Length":149.7578993124277,"Shape__Area":572.31988112447584}},{"type":"Feature","id":16,"geometry":null,"properties":{"FID":16,"PROPERTY_A":"Widener Hall","PROPERTY_1":"580 Meetinghouse Road","CAMPUS":"AMB","BUILDING__":"936","BUILDING_C":"AMWIDE","Ownership_":"Temple University","fact_id":132,"Shape__Length":148.78427446522417,"Shape__Area":1329.6560724950768}},{"type":"Feature","id":17,"geometry":null,"properties":{"FID":17,"PROPERTY_A":"Greenhouse (New)","PROPERTY_1":"580 Meetinghouse Road","CAMPUS":"AMB","BUILDING__":"907","BUILDING_C":"AMNGRN","Ownership_":"Temple University","fact_id":124,"Shape__Length":181.07356833546484,"Shape__Area":1025.2912261591091}},{"type":"Feature","id":18,"geometry":null,"properties":{"FID":18,"PROPERTY_A":"Bright Hall","PROPERTY_1":"580 Meetinghouse Road","CAMPUS":"AMB","BUILDING__":"903","BUILDING_C":"AMBRHT","Ownership_":"Temple University","fact_id":121,"Shape__Length":262.61403318014112,"Shape__Area":2310.4756362718167}},{"type":"Feature","id":19,"geometry":null,"properties":{"FID":19,"PROPERTY_A":"Dining Center","PROPERTY_1":"580 Meetinghouse Road","CAMPUS":"AMB","BUILDING__":"923","BUILDING_C":" ","Ownership_":"Temple University","fact_id":129,"Shape__Length":199.49722883783804,"Shape__Area":1699.512982831274}},{"type":"Feature","id":20,"geometry":null,"properties":{"FID":20,"PROPERTY_A":"Dixon Hall","PROPERTY_1":"580 Meetinghouse Road","CAMPUS":"AMB","BUILDING__":"938","BUILDING_C":"AMDIXN","Ownership_":"Temple University","fact_id":133,"Shape__Length":267.92302344191768,"Shape__Area":1537.8101048341405}},{"type":"Feature","id":21,"geometry":null,"properties":{"FID":21,"PROPERTY_A":"Pool House","PROPERTY_1":"580 Meetinghouse Road","CAMPUS":"AMB","BUILDING__":"905","BUILDING_C":"AMPOOL","Ownership_":"Temple University","fact_id":123,"Shape__Length":85.675783111320271,"Shape__Area":322.80763301117605}},{"type":"Feature","id":22,"geometry":null,"properties":{"FID":22,"PROPERTY_A":"Hilda Justice Hall","PROPERTY_1":"580 Meetinghouse Road","CAMPUS":"AMB","BUILDING__":"919","BUILDING_C":"AMJUST","Ownership_":"Temple University","fact_id":128,"Shape__Length":60.265670385312738,"Shape__Area":223.43769511147508}},{"type":"Feature","id":23,"geometry":null,"properties":{"FID":23,"PROPERTY_A":"Red Barn Gymnasium","PROPERTY_1":"580 Meetinghouse Road","CAMPUS":"AMB","BUILDING__":"904","BUILDING_C":"AMGYM","Ownership_":"Temple University","fact_id":122,"Shape__Length":157.28665083795048,"Shape__Area":1213.3853250020563}},{"type":"Feature","id":24,"geometry":null,"properties":{"FID":24,"PROPERTY_A":"Haines House","PROPERTY_1":"580 Meetinghouse Road","CAMPUS":"AMB","BUILDING__":"912","BUILDING_C":" ","Ownership_":"Temple University","fact_id":127,"Shape__Length":86.863504427192794,"Shape__Area":346.34343280142264}},{"type":"Feature","id":25,"geometry":null,"properties":{"FID":25,"PROPERTY_A":"Ambler Learning Center","PROPERTY_1":"580 Meetinghouse Road","CAMPUS":"AMB","BUILDING__":"925","BUILDING_C":"AMLRNC","Ownership_":"Temple University","fact_id":130,"Shape__Length":377.058176542627,"Shape__Area":4482.2951999345742}},{"type":"Feature","id":26,"geometry":null,"properties":{"FID":26,"PROPERTY_A":"Facilities Management - Physical Plant","PROPERTY_1":"580 Meetinghouse Road","CAMPUS":"AMB","BUILDING__":"902","BUILDING_C":" ","Ownership_":"Temple University","fact_id":120,"Shape__Length":115.20932085614287,"Shape__Area":526.15068298074243}},{"type":"Feature","id":27,"geometry":null,"properties":{"FID":27,"PROPERTY_A":"Field House","PROPERTY_1":"580 Meetinghouse Road","CAMPUS":"AMB","BUILDING__":"941","BUILDING_C":" ","Ownership_":"Temple University","fact_id":134,"Shape__Length":113.84642194443086,"Shape__Area":810.0493106846518}},{"type":"Feature","id":28,"geometry":null,"properties":{"FID":28,"PROPERTY_A":"Kardon Building","PROPERTY_1":"1851 N. 10th Street","CAMPUS":"MC","BUILDING__":"067","BUILDING_C":"KARDON","Ownership_":"Temple University Ground Leased","fact_id":53,"Shape__Length":368.38821593207354,"Shape__Area":7775.829873457059}},{"type":"Feature","id":29,"geometry":null,"properties":{"FID":29,"PROPERTY_A":"2025 N. Carlisle Street","PROPERTY_1":"2025 N. Carlisle Street","CAMPUS":"MC","BUILDING__":"132","BUILDING_C":"2025CL","Ownership_":"Temple University","fact_id":65,"Shape__Length":65.658419627905189,"Shape__Area":156.99974157893902}},{"type":"Feature","id":30,"geometry":null,"properties":{"FID":30,"PROPERTY_A":"2029 N. Carlisle Street","PROPERTY_1":"2029 N. Carlisle Street","CAMPUS":"MC","BUILDING__":"133","BUILDING_C":"2029CL","Ownership_":"Temple University","fact_id":66,"Shape__Length":66.180788476642476,"Shape__Area":162.32719110651698}},{"type":"Feature","id":32,"geometry":null,"properties":{"FID":32,"PROPERTY_A":"Woman’s National Farm &\n Garden Visitors Center","PROPERTY_1":"580 Meetinghouse Road","CAMPUS":"AMB","BUILDING__":"909","BUILDING_C":"AMVSTC","Ownership_":"Temple University","fact_id":126,"Shape__Length":72.421557234148082,"Shape__Area":208.28221936414332}},{"type":"Feature","id":33,"geometry":null,"properties":{"FID":33,"PROPERTY_A":"Montgomery Avenue Parking Garage","PROPERTY_1":"1859 N. 11th Street","CAMPUS":"MC","BUILDING__":"064","BUILDING_C":"MONGAR","Ownership_":"Temple University","fact_id":51,"Shape__Length":500.68887733125791,"Shape__Area":12091.627445598257}},{"type":"Feature","id":34,"geometry":null,"properties":{"FID":34,"PROPERTY_A":"Pearson-McGonigle Hall","PROPERTY_1":"1800-1828 N. Broad Street","CAMPUS":"MC","BUILDING__":"048","BUILDING_C":"PEARMC","Ownership_":"Commonwealth","fact_id":38,"Shape__Length":700.34987813955638,"Shape__Area":19163.661052737833}},{"type":"Feature","id":35,"geometry":null,"properties":{"FID":35,"PROPERTY_A":"Liacouras Center Parking Garage","PROPERTY_1":"1710 N. 15th Street","CAMPUS":"MC","BUILDING__":"102","BUILDING_C":"LIAPRK","Ownership_":"Temple University","fact_id":61,"Shape__Length":511.57206312934431,"Shape__Area":11078.064274423748}},{"type":"Feature","id":36,"geometry":null,"properties":{"FID":36,"PROPERTY_A":"Liacouras Center","PROPERTY_1":"1776 N. Broad Street","CAMPUS":"MC","BUILDING__":"029","BUILDING_C":"LIACTR","Ownership_":"Temple University","fact_id":23,"Shape__Length":631.21645790450214,"Shape__Area":19038.150088322171}},{"type":"Feature","id":37,"geometry":null,"properties":{"FID":37,"PROPERTY_A":"1700 N. Broad Street","PROPERTY_1":"1700-1722 N. Broad Street","CAMPUS":"MC","BUILDING__":"062","BUILDING_C":"1700NB","Ownership_":"Temple University","fact_id":49,"Shape__Length":268.55597004979256,"Shape__Area":2972.2144806207707}},{"type":"Feature","id":38,"geometry":null,"properties":{"FID":38,"PROPERTY_A":"Ritter Hall Annex","PROPERTY_1":"1301-1343 Cecil B. Moore Avenue","CAMPUS":"MC","BUILDING__":"004","BUILDING_C":"RTTERX","Ownership_":"Commonwealth","fact_id":2,"Shape__Length":389.07192714287095,"Shape__Area":3846.2524803484221}},{"type":"Feature","id":39,"geometry":null,"properties":{"FID":39,"PROPERTY_A":"Rock Hall","PROPERTY_1":"1715 N. Broad Street","CAMPUS":"MC","BUILDING__":"061","BUILDING_C":"ROCKHL","Ownership_":"Temple University","fact_id":48,"Shape__Length":191.22334924737083,"Shape__Area":1533.5130678759476}},{"type":"Feature","id":40,"geometry":null,"properties":{"FID":40,"PROPERTY_A":"Klein Law Building","PROPERTY_1":"1719 N. Broad Street","CAMPUS":"MC","BUILDING__":"055","BUILDING_C":"KLEIN","Ownership_":"Temple University","fact_id":43,"Shape__Length":313.04618854179137,"Shape__Area":5422.6817614651409}},{"type":"Feature","id":41,"geometry":null,"properties":{"FID":41,"PROPERTY_A":"Howard Gittis Student Center","PROPERTY_1":"1755 N. 13th Street","CAMPUS":"MC","BUILDING__":"045","BUILDING_C":"HGSC","Ownership_":"Temple University","fact_id":36,"Shape__Length":534.50766116811178,"Shape__Area":10227.156533052012}},{"type":"Feature","id":42,"geometry":null,"properties":{"FID":42,"PROPERTY_A":"Temple Towers","PROPERTY_1":"1200-1250 Cecil B. Moore Avenue","CAMPUS":"MC","BUILDING__":"058","BUILDING_C":"TMPTWR","Ownership_":"Temple University","fact_id":45,"Shape__Length":609.17240991746803,"Shape__Area":6005.8360189134437}},{"type":"Feature","id":43,"geometry":null,"properties":{"FID":43,"PROPERTY_A":"Entertainment & Community Education Center (ECEC)","PROPERTY_1":"1509-1511 C.B. Moore Avenue","CAMPUS":"MC","BUILDING__":"031","BUILDING_C":"ECEC","Ownership_":"Temple University","fact_id":25,"Shape__Length":220.80020593302928,"Shape__Area":2046.4996347956931}},{"type":"Feature","id":44,"geometry":null,"properties":{"FID":44,"PROPERTY_A":"The Burk Mansion","PROPERTY_1":"1500-1510 N. Broad Street","CAMPUS":"MC","BUILDING__":"106","BUILDING_C":"BURK","Ownership_":"Temple University","fact_id":63,"Shape__Length":141.70505320973294,"Shape__Area":857.6693637782522}},{"type":"Feature","id":45,"geometry":null,"properties":{"FID":45,"PROPERTY_A":"The Burk Mansion (Rear)","PROPERTY_1":"1500-1510 N. Broad Street (Rear)","CAMPUS":"MC","BUILDING__":"107","BUILDING_C":"BURKR","Ownership_":"Temple University","fact_id":64,"Shape__Length":158.71469291467488,"Shape__Area":547.51910080171297}},{"type":"Feature","id":46,"geometry":null,"properties":{"FID":46,"PROPERTY_A":"West POD (Electrical Substation)","PROPERTY_1":"16th & Montgomery","CAMPUS":"MC","BUILDING__":"063","BUILDING_C":"WSTPOD","Ownership_":"Temple University","fact_id":50,"Shape__Length":99.232130941255875,"Shape__Area":481.7003152675768}},{"type":"Feature","id":47,"geometry":null,"properties":{"FID":47,"PROPERTY_A":"Weiss Hall","PROPERTY_1":"1701-1711 N. 13th Street","CAMPUS":"MC","BUILDING__":"019","BUILDING_C":"WEISS","Ownership_":"Commonwealth","fact_id":16,"Shape__Length":279.74622351679756,"Shape__Area":2167.6973746623244}},{"type":"Feature","id":48,"geometry":null,"properties":{"FID":48,"PROPERTY_A":"Student Pavilion","PROPERTY_1":"1901 N. 15th Street","CAMPUS":"MC","BUILDING__":"028","BUILDING_C":"STUPAV","Ownership_":"Temple University","fact_id":22,"Shape__Length":378.73680649906441,"Shape__Area":6405.3547522437975}},{"type":"Feature","id":49,"geometry":null,"properties":{"FID":49,"PROPERTY_A":"1300 Cecil B Moore Residence Hall","PROPERTY_1":"1300-1322 Cecil B. Moore Avenue","CAMPUS":"MC","BUILDING__":"057","BUILDING_C":"1300CB","Ownership_":"Temple University","fact_id":44,"Shape__Length":1053.9526441778016,"Shape__Area":10013.114791345552}},{"type":"Feature","id":50,"geometry":null,"properties":{"FID":50,"PROPERTY_A":"Morgan Hall South","PROPERTY_1":"1601 N. Broad Street","CAMPUS":"MC","BUILDING__":"084S","BUILDING_C":"MORGAN","Ownership_":"Temple University","fact_id":58,"Shape__Length":506.35631269751701,"Shape__Area":4461.8596743130083}},{"type":"Feature","id":51,"geometry":null,"properties":{"FID":51,"PROPERTY_A":"Morgan Hall North","PROPERTY_1":"1601 N. Broad Street","CAMPUS":"MC","BUILDING__":"084N","BUILDING_C":"MORGAN","Ownership_":"Temple University","fact_id":57,"Shape__Length":459.63502187228227,"Shape__Area":4384.3788284520424}},{"type":"Feature","id":52,"geometry":null,"properties":{"FID":52,"PROPERTY_A":"Temple Sports Complex","PROPERTY_1":"1389 N. Broad Street","CAMPUS":"MC","BUILDING__":"161","BUILDING_C":"TUSC","Ownership_":"Temple University","fact_id":76,"Shape__Length":335.03318249929237,"Shape__Area":2452.4763274064444}},{"type":"Feature","id":53,"geometry":null,"properties":{"FID":53,"PROPERTY_A":"ARAMARK Student Training and Recreation Complex","PROPERTY_1":"1800 N. 15th Street","CAMPUS":"MC","BUILDING__":"156","BUILDING_C":"ASTARC","Ownership_":"Temple University","fact_id":73,"Shape__Length":449.71852551785389,"Shape__Area":12100.589920417897}},{"type":"Feature","id":54,"geometry":null,"properties":{"FID":54,"PROPERTY_A":"Bresser Generation Station","PROPERTY_1":"1800-1822 N. 10th Street","CAMPUS":"MC","BUILDING__":"059","BUILDING_C":null,"Ownership_":"Commonwealth","fact_id":41,"Shape__Length":235.18573846858789,"Shape__Area":3042.6351489254275}},{"type":"Feature","id":55,"geometry":null,"properties":{"FID":55,"PROPERTY_A":"Central Steam Plant","PROPERTY_1":"1840 N. 10th Street","CAMPUS":"MC","BUILDING__":"053","BUILDING_C":"CTRLSP","Ownership_":"Commonwealth","fact_id":46,"Shape__Length":299.69018827948167,"Shape__Area":2847.0995046147445}},{"type":"Feature","id":56,"geometry":null,"properties":{"FID":56,"PROPERTY_A":"Bell Building","PROPERTY_1":"1101 W. Montgomery Avenue","CAMPUS":"MC","BUILDING__":"068","BUILDING_C":"TECH","Ownership_":"Temple University","fact_id":54,"Shape__Length":423.80861084692606,"Shape__Area":9610.5231839824464}},{"type":"Feature","id":57,"geometry":null,"properties":{"FID":57,"PROPERTY_A":"Bell Building Garage","PROPERTY_1":"1840 N. 11th Street","CAMPUS":"MC","BUILDING__":"066","BUILDING_C":"BELGAR","Ownership_":"Temple University","fact_id":52,"Shape__Length":256.9916974545381,"Shape__Area":3864.0682417000794}},{"type":"Feature","id":58,"geometry":null,"properties":{"FID":58,"PROPERTY_A":"Biology-Life Sciences","PROPERTY_1":"1900 N. 12th Street","CAMPUS":"MC","BUILDING__":"015","BUILDING_C":"BIOSCI","Ownership_":"Commonwealth","fact_id":13,"Shape__Length":438.4483566787456,"Shape__Area":6876.0038911219735}},{"type":"Feature","id":59,"geometry":null,"properties":{"FID":59,"PROPERTY_A":"Mazur Hall","PROPERTY_1":"1835-1899 N. 12th Street","CAMPUS":"MC","BUILDING__":"022","BUILDING_C":"MAZUR","Ownership_":"Commonwealth","fact_id":18,"Shape__Length":556.86332983124498,"Shape__Area":7350.2208045391299}},{"type":"Feature","id":60,"geometry":null,"properties":{"FID":60,"PROPERTY_A":"Tuttleman Learning Center","PROPERTY_1":"1809 N. 13th Street","CAMPUS":"MC","BUILDING__":"008","BUILDING_C":"TTLMAN","Ownership_":"Commonwealth","fact_id":6,"Shape__Length":500.08684973695722,"Shape__Area":5810.9100975357987}},{"type":"Feature","id":61,"geometry":null,"properties":{"FID":61,"PROPERTY_A":"Paley Hall","PROPERTY_1":"1210 W. Berks Street","CAMPUS":"MC","BUILDING__":"017","BUILDING_C":"PALEY","Ownership_":"Commonwealth","fact_id":15,"Shape__Length":438.32901856979623,"Shape__Area":8801.0627196786754}},{"type":"Feature","id":62,"geometry":null,"properties":{"FID":62,"PROPERTY_A":"James S. White Hall","PROPERTY_1":"2108-2110 N. Broad Street","CAMPUS":"MC","BUILDING__":"034","BUILDING_C":"WHITE","Ownership_":"Commonwealth","fact_id":28,"Shape__Length":596.80966863632284,"Shape__Area":6144.4855093808583}},{"type":"Feature","id":64,"geometry":null,"properties":{"FID":64,"PROPERTY_A":"Presser Hall","PROPERTY_1":"2001-2059 N. 13th Street","CAMPUS":"MC","BUILDING__":"012","BUILDING_C":"PRESSR","Ownership_":"Commonwealth","fact_id":9,"Shape__Length":212.5809771872654,"Shape__Area":2194.2735416186711}},{"type":"Feature","id":65,"geometry":null,"properties":{"FID":65,"PROPERTY_A":"Johnson/Hardwick Commons","PROPERTY_1":"2029 N. Broad Street","CAMPUS":"MC","BUILDING__":"033","BUILDING_C":"JANDH","Ownership_":"Temple University","fact_id":27,"Shape__Length":514.1177228131213,"Shape__Area":4044.8088577347744}},{"type":"Feature","id":66,"geometry":null,"properties":{"FID":66,"PROPERTY_A":"1900-1916  N. Liacouras Walk","PROPERTY_1":"1900 - 1916  N. Liacouras Walk","CAMPUS":"MC","BUILDING__":"285","BUILDING_C":"1910LW","Ownership_":"Temple University","fact_id":81,"Shape__Length":235.62218809181419,"Shape__Area":1765.4138758024137}},{"type":"Feature","id":67,"geometry":null,"properties":{"FID":67,"PROPERTY_A":"1940 Residence Hall","PROPERTY_1":"1940 Liacouras Walk","CAMPUS":"MC","BUILDING__":"032","BUILDING_C":"1940NR","Ownership_":"Temple University","fact_id":26,"Shape__Length":358.57860058245961,"Shape__Area":3511.6342301837872}},{"type":"Feature","id":68,"geometry":null,"properties":{"FID":68,"PROPERTY_A":"Conwell Hall","PROPERTY_1":"1801-35 N. Broad Street","CAMPUS":"MC","BUILDING__":"041","BUILDING_C":"CNWELL","Ownership_":"Temple University","fact_id":34,"Shape__Length":217.51666290720866,"Shape__Area":1447.2684738773314}},{"type":"Feature","id":69,"geometry":null,"properties":{"FID":69,"PROPERTY_A":"Sullivan Hall","PROPERTY_1":"1330 W. Berks Street","CAMPUS":"MC","BUILDING__":"007","BUILDING_C":"SULLVN","Ownership_":"Temple University","fact_id":5,"Shape__Length":208.06590814499393,"Shape__Area":2146.3615943272112}},{"type":"Feature","id":70,"geometry":null,"properties":{"FID":70,"PROPERTY_A":"Shusterman Hall","PROPERTY_1":"1834 Liacouras Walk","CAMPUS":"MC","BUILDING__":"060","BUILDING_C":"SHUSTR","Ownership_":"Temple University","fact_id":47,"Shape__Length":135.25698282323594,"Shape__Area":692.53159687520395}},{"type":"Feature","id":71,"geometry":null,"properties":{"FID":71,"PROPERTY_A":"Mitten Hall","PROPERTY_1":"1913 N. Broad Street","CAMPUS":"MC","BUILDING__":"043","BUILDING_C":"MITTEN","Ownership_":"Temple University","fact_id":35,"Shape__Length":377.5519871552591,"Shape__Area":5137.4439360218685}},{"type":"Feature","id":72,"geometry":null,"properties":{"FID":72,"PROPERTY_A":"Edberg-Olson Hall","PROPERTY_1":"1001 W. Diamond Street","CAMPUS":"MC","BUILDING__":"027","BUILDING_C":"EDBERG","Ownership_":"Temple University","fact_id":21,"Shape__Length":361.11622767553558,"Shape__Area":4219.4258951074817}},{"type":"Feature","id":73,"geometry":null,"properties":{"FID":73,"PROPERTY_A":"Anderson Food Court","PROPERTY_1":"1835-1899 N. 12th Street","CAMPUS":"MC","BUILDING__":"103","BUILDING_C":"ANFOOD","Ownership_":"Temple University","fact_id":62,"Shape__Length":99.463969704360238,"Shape__Area":320.02946122417546}},{"type":"Feature","id":74,"geometry":null,"properties":{"FID":74,"PROPERTY_A":"2016-2018 N. Broad Street","PROPERTY_1":"2016-2018 N. Broad","CAMPUS":"MC","BUILDING__":"139","BUILDING_C":"2020NB","Ownership_":"Temple University","fact_id":69,"Shape__Length":123.32763710804134,"Shape__Area":631.10050961491402}},{"type":"Feature","id":75,"geometry":null,"properties":{"FID":75,"PROPERTY_A":"Tomlinson Theater","PROPERTY_1":"2020 N. 13th Street","CAMPUS":"MC","BUILDING__":"010","BUILDING_C":"TMLSON","Ownership_":"Commonwealth","fact_id":7,"Shape__Length":312.26198533781707,"Shape__Area":3608.3959980932882}},{"type":"Feature","id":76,"geometry":null,"properties":{"FID":76,"PROPERTY_A":"Annenberg Hall","PROPERTY_1":"2020 N. 13th Street","CAMPUS":"MC","BUILDING__":"011","BUILDING_C":"ANNBRG","Ownership_":"Commonwealth","fact_id":8,"Shape__Length":279.34604171669099,"Shape__Area":3843.7621836738695}},{"type":"Feature","id":77,"geometry":null,"properties":{"FID":77,"PROPERTY_A":"Tyler School of Art","PROPERTY_1":"2001-2059 N. 13th Street","CAMPUS":"MC","BUILDING__":"013","BUILDING_C":"TYLER","Ownership_":"Commonwealth","fact_id":11,"Shape__Length":661.62441491496349,"Shape__Area":12173.31569422209}},{"type":"Feature","id":78,"geometry":null,"properties":{"FID":78,"PROPERTY_A":"Wachman Hall","PROPERTY_1":"1805 N. Broad Street","CAMPUS":"MC","BUILDING__":"054","BUILDING_C":"WCHMAN","Ownership_":"Temple University","fact_id":42,"Shape__Length":220.42221664729044,"Shape__Area":1794.3265471327866}},{"type":"Feature","id":79,"geometry":null,"properties":{"FID":79,"PROPERTY_A":"Carnell Hall","PROPERTY_1":"1803 N. Broad Street","CAMPUS":"MC","BUILDING__":"040","BUILDING_C":"CARNEL","Ownership_":"Temple University","fact_id":33,"Shape__Length":204.64328865768243,"Shape__Area":1124.3497912603045}},{"type":"Feature","id":80,"geometry":null,"properties":{"FID":80,"PROPERTY_A":"1926-1938 N. Liacouras Walk","PROPERTY_1":"1926 - 1938 N. Liacouras Walk","CAMPUS":"MC","BUILDING__":"295","BUILDING_C":"1938LW","Ownership_":"Temple University","fact_id":82,"Shape__Length":202.08079484344901,"Shape__Area":1425.949456922971}},{"type":"Feature","id":81,"geometry":null,"properties":{"FID":81,"PROPERTY_A":"Baptist Temple - Performing Arts Center (TPAC)","PROPERTY_1":"1823 N. Broad Street","CAMPUS":"MC","BUILDING__":"150","BUILDING_C":"TPAC","Ownership_":"Temple University","fact_id":72,"Shape__Length":229.1811186610644,"Shape__Area":2473.3900365739073}},{"type":"Feature","id":82,"geometry":null,"properties":{"FID":82,"PROPERTY_A":"Barrack Hall","PROPERTY_1":"1819 N. Broad Street","CAMPUS":"MC","BUILDING__":"039","BUILDING_C":"BARRKH","Ownership_":"Temple University","fact_id":32,"Shape__Length":203.01015741470985,"Shape__Area":1852.4386800412426}},{"type":"Feature","id":83,"geometry":null,"properties":{"FID":83,"PROPERTY_A":"Gladfelter Hall","PROPERTY_1":"1115 W. Berks Street","CAMPUS":"MC","BUILDING__":"025","BUILDING_C":"GLFLTR","Ownership_":"Commonwealth","fact_id":20,"Shape__Length":434.61111486299126,"Shape__Area":4158.1781613503135}},{"type":"Feature","id":84,"geometry":null,"properties":{"FID":84,"PROPERTY_A":"Alter Hall","PROPERTY_1":"1801 Liacouras Walk","CAMPUS":"MC","BUILDING__":"005","BUILDING_C":"ALTER","Ownership_":"Temple University","fact_id":3,"Shape__Length":300.75787301034217,"Shape__Area":4032.4883494001515}},{"type":"Feature","id":85,"geometry":null,"properties":{"FID":85,"PROPERTY_A":"Science, Education & Research Center (SERC)","PROPERTY_1":"1835-1899 N. 12th Street","CAMPUS":"MC","BUILDING__":"024","BUILDING_C":"SERC","Ownership_":"Commonwealth","fact_id":19,"Shape__Length":378.55855549336502,"Shape__Area":5035.596338683974}},{"type":"Feature","id":86,"geometry":null,"properties":{"FID":86,"PROPERTY_A":"Engineering Building","PROPERTY_1":"1947 N. 12th Street","CAMPUS":"MC","BUILDING__":"014","BUILDING_C":"ENGR","Ownership_":"Commonwealth","fact_id":12,"Shape__Length":326.81031210681613,"Shape__Area":3874.35067592512}},{"type":"Feature","id":87,"geometry":null,"properties":{"FID":87,"PROPERTY_A":"Facilities Management","PROPERTY_1":"1009 W. Montgomery Avenue","CAMPUS":"MC","BUILDING__":"052","BUILDING_C":"FMBLDG","Ownership_":"Commonwealth","fact_id":40,"Shape__Length":365.87028045132126,"Shape__Area":4481.2579416195795}},{"type":"Feature","id":88,"geometry":null,"properties":{"FID":88,"PROPERTY_A":"Speakman Hall","PROPERTY_1":"1810 N. 13th Street","CAMPUS":"MC","BUILDING__":"006","BUILDING_C":"SPKMAN","Ownership_":"Temple University","fact_id":4,"Shape__Length":301.08397761724291,"Shape__Area":4324.3041327932806}},{"type":"Feature","id":89,"geometry":null,"properties":{"FID":89,"PROPERTY_A":"1810 Liacouras Walk","PROPERTY_1":"1810 Liacouras Walk","CAMPUS":"MC","BUILDING__":"200","BUILDING_C":"1810LW","Ownership_":"Temple University","fact_id":80,"Shape__Length":314.53182279522582,"Shape__Area":3024.7069028818423}},{"type":"Feature","id":90,"geometry":null,"properties":{"FID":90,"PROPERTY_A":"Charles Library","PROPERTY_1":"1900 N. 13th Street","CAMPUS":"MC","BUILDING__":"021","BUILDING_C":"CHARLS","Ownership_":"Commonwealth","fact_id":17,"Shape__Length":458.48981236534524,"Shape__Area":8715.7805425217721}},{"type":"Feature","id":91,"geometry":null,"properties":{"FID":91,"PROPERTY_A":"IBC Student Recreation Center","PROPERTY_1":"1701-1723 N. 15th Street","CAMPUS":"MC","BUILDING__":"030","BUILDING_C":"IBC","Ownership_":"Temple University","fact_id":24,"Shape__Length":248.64861018742394,"Shape__Area":3271.4478553879217}},{"type":"Feature","id":92,"geometry":null,"properties":{"FID":92,"PROPERTY_A":"Ritter Hall","PROPERTY_1":"1301-1343 Cecil B. Moore Avenue","CAMPUS":"MC","BUILDING__":"003","BUILDING_C":"RITTER","Ownership_":"Commonwealth","fact_id":1,"Shape__Length":438.90520969708217,"Shape__Area":3834.5281283126933}},{"type":"Feature","id":93,"geometry":null,"properties":{"FID":93,"PROPERTY_A":"Architecture Building","PROPERTY_1":"2001-59 N. 13th Street","CAMPUS":"MC","BUILDING__":"070","BUILDING_C":"ARCH","Ownership_":"Commonwealth","fact_id":56,"Shape__Length":232.52726375349076,"Shape__Area":2192.2709115899834}},{"type":"Feature","id":94,"geometry":null,"properties":{"FID":94,"PROPERTY_A":"2020 N. Broad Street","PROPERTY_1":"2020 N. Broad Street","CAMPUS":"MC","BUILDING__":"136","BUILDING_C":" ","Ownership_":"Temple University","fact_id":68,"Shape__Length":92.442468345505773,"Shape__Area":292.5813205331641}},{"type":"Feature","id":95,"geometry":null,"properties":{"FID":95,"PROPERTY_A":"Barrack Hall Annex","PROPERTY_1":"1819-1831 N. Broad Street","CAMPUS":"MC","BUILDING__":"038","BUILDING_C":"BRKANX","Ownership_":"Temple University","fact_id":31,"Shape__Length":59.716256268197952,"Shape__Area":222.84237242660959}},{"type":"Feature","id":96,"geometry":null,"properties":{"FID":96,"PROPERTY_A":"Hardwick Hall Residence (Tower)","PROPERTY_1":"2029 N. Broad Street","CAMPUS":"MC","BUILDING__":"037","BUILDING_C":"HRDWCK","Ownership_":"Temple University","fact_id":30,"Shape__Length":168.82182922457548,"Shape__Area":1385.5310840878292}},{"type":"Feature","id":97,"geometry":null,"properties":{"FID":97,"PROPERTY_A":"Johnson Hall Residence (Tower)","PROPERTY_1":"2029 N. Broad Street","CAMPUS":"MC","BUILDING__":"036","BUILDING_C":"JHNSON","Ownership_":"Temple University","fact_id":29,"Shape__Length":163.45217625308919,"Shape__Area":1329.5618585930083}},{"type":"Feature","id":98,"geometry":null,"properties":{"FID":98,"PROPERTY_A":"Presser Hall Addition","PROPERTY_1":"2001-2059 N. 13th Street","CAMPUS":"MC","BUILDING__":"012","BUILDING_C":"PRSSRA","Ownership_":"Commonwealth","fact_id":10,"Shape__Length":178.75777916545033,"Shape__Area":1299.4154431309141}},{"type":"Feature","id":99,"geometry":null,"properties":{"FID":99,"PROPERTY_A":"HSC Facilities Management Building","PROPERTY_1":"3428 N. Carlisle Street","CAMPUS":"HSC","BUILDING__":"513","BUILDING_C":" ","Ownership_":"Temple University","fact_id":90,"Shape__Length":149.09066366133661,"Shape__Area":1114.8821468539427}},{"type":"Feature","id":100,"geometry":null,"properties":{"FID":100,"PROPERTY_A":"Boyer Pavilion Garage (Tioga St.)","PROPERTY_1":"3501-17 N. Broad Street","CAMPUS":"TUH","BUILDING__":"708","BUILDING_C":" ","Ownership_":"TUHS","fact_id":111,"Shape__Length":358.66310324197366,"Shape__Area":6290.745320111314}},{"type":"Feature","id":101,"geometry":null,"properties":{"FID":101,"PROPERTY_A":"Jones Hall","PROPERTY_1":"1316 W. Ontario Street","CAMPUS":"TUH","BUILDING__":"700","BUILDING_C":"JONES","Ownership_":"TUHS","fact_id":104,"Shape__Length":175.43763218677464,"Shape__Area":1652.6941842833066}},{"type":"Feature","id":102,"geometry":null,"properties":{"FID":102,"PROPERTY_A":"Boyer Pavilion","PROPERTY_1":"3501-17 N. Broad Street","CAMPUS":"TUH","BUILDING__":"707","BUILDING_C":" ","Ownership_":"TUHS","fact_id":110,"Shape__Length":178.98317699383011,"Shape__Area":1877.0339545352908}},{"type":"Feature","id":103,"geometry":null,"properties":{"FID":103,"PROPERTY_A":"Ontario East Parking Garage","PROPERTY_1":"3401-41 N. Broad Street","CAMPUS":"TUH","BUILDING__":"704","BUILDING_C":" ","Ownership_":"TUHS","fact_id":107,"Shape__Length":349.09045599858644,"Shape__Area":5993.2472071115226}},{"type":"Feature","id":104,"geometry":null,"properties":{"FID":104,"PROPERTY_A":"TUCC, 1515 Market Street","PROPERTY_1":"1515 Market Street","CAMPUS":"TUCC","BUILDING__":"193","BUILDING_C":"TUCC","Ownership_":"Leased","fact_id":79,"Shape__Length":295.6202715683342,"Shape__Area":4061.063588336594}},{"type":"Feature","id":105,"geometry":null,"properties":{"FID":105,"PROPERTY_A":"PCPM Residence Hall","PROPERTY_1":"801 Cherry Street","CAMPUS":"POD","BUILDING__":"580","BUILDING_C":" ","Ownership_":"Temple University","fact_id":97,"Shape__Length":191.08199850150322,"Shape__Area":1438.0954261140716}},{"type":"Feature","id":106,"geometry":null,"properties":{"FID":106,"PROPERTY_A":"Fort Washington, 425 Commerce Drive","PROPERTY_1":"425 Commerce Drive","CAMPUS":"FTW","BUILDING__":"951","BUILDING_C":"FWCCTR","Ownership_":"Leased","fact_id":135,"Shape__Length":373.67573224007765,"Shape__Area":5603.675017768137}},{"type":"Feature","id":107,"geometry":null,"properties":{"FID":107,"PROPERTY_A":"Ontario West Parking Garage","PROPERTY_1":"1450 W. Ontario Street","CAMPUS":"TUH","BUILDING__":"705","BUILDING_C":" ","Ownership_":"TUHS","fact_id":108,"Shape__Length":564.45771079997189,"Shape__Area":15842.740088920185}},{"type":"Feature","id":108,"geometry":null,"properties":{"FID":108,"PROPERTY_A":"Carlisle West Parking Garage","PROPERTY_1":"3423 N. 15th Street","CAMPUS":"HSC","BUILDING__":"706","BUILDING_C":" ","Ownership_":"Temple University","fact_id":109,"Shape__Length":329.07257856776863,"Shape__Area":6631.9036956160371}},{"type":"Feature","id":109,"geometry":null,"properties":{"FID":109,"PROPERTY_A":"Rock Pavilion","PROPERTY_1":"3401-41 N. Broad Street","CAMPUS":"TUH","BUILDING__":"702","BUILDING_C":" ","Ownership_":"Commonwealth","fact_id":105,"Shape__Length":508.63715358593407,"Shape__Area":10657.892203268219}},{"type":"Feature","id":110,"geometry":null,"properties":{"FID":110,"PROPERTY_A":"Parkinson Pavilion","PROPERTY_1":"3401-41 N. Broad Street","CAMPUS":"TUH","BUILDING__":"506","BUILDING_C":" ","Ownership_":"Commonwealth","fact_id":84,"Shape__Length":180.09093979611342,"Shape__Area":1405.8865398051214}},{"type":"Feature","id":111,"geometry":null,"properties":{"FID":111,"PROPERTY_A":"Ambulatory Care Center","PROPERTY_1":"3401-41 N. Broad Street","CAMPUS":"TUH","BUILDING__":"709","BUILDING_C":" ","Ownership_":"Commonwealth","fact_id":112,"Shape__Length":146.52358095978229,"Shape__Area":1249.193369418708}},{"type":"Feature","id":112,"geometry":null,"properties":{"FID":112,"PROPERTY_A":"Temple University Harrisburg","PROPERTY_1":"234 Strawberry Square","CAMPUS":"HAR","BUILDING__":"760","BUILDING_C":"HRSBG","Ownership_":"Leased","fact_id":118,"Shape__Length":334.652072735795,"Shape__Area":6324.0778495244494}},{"type":"Feature","id":113,"geometry":null,"properties":{"FID":113,"PROPERTY_A":"1314 W Ontario Street","PROPERTY_1":"1314 W Ontario Street","CAMPUS":"TUH","BUILDING__":"759","BUILDING_C":" ","Ownership_":"Temple University","fact_id":117,"Shape__Length":77.220018182991097,"Shape__Area":287.32489477824652}},{"type":"Feature","id":114,"geometry":null,"properties":{"FID":114,"PROPERTY_A":"1308 W. Ontario Street","PROPERTY_1":"1308 W. Ontario Street","CAMPUS":"TUH","BUILDING__":"758","BUILDING_C":" ","Ownership_":"Temple University","fact_id":116,"Shape__Length":75.431250781188282,"Shape__Area":281.16133550311781}},{"type":"Feature","id":115,"geometry":null,"properties":{"FID":115,"PROPERTY_A":"Bridge","PROPERTY_1":"3401-41 N. Broad Street","CAMPUS":"TUH","BUILDING__":"713","BUILDING_C":" ","Ownership_":"Commonwealth","fact_id":113,"Shape__Length":62.220941899242469,"Shape__Area":134.35125946546788}},{"type":"Feature","id":116,"geometry":null,"properties":{"FID":116,"PROPERTY_A":"Park Ave Pavilion","PROPERTY_1":"3401-41 N. Broad Street","CAMPUS":"TUH","BUILDING__":"703","BUILDING_C":" ","Ownership_":"Commonwealth","fact_id":106,"Shape__Length":160.35343072195226,"Shape__Area":1606.615573910082}},{"type":"Feature","id":117,"geometry":null,"properties":{"FID":117,"PROPERTY_A":"Ancillary Building","PROPERTY_1":"3401-41 N. Broad Street","CAMPUS":"TUH","BUILDING__":"507","BUILDING_C":" ","Ownership_":"Commonwealth","fact_id":85,"Shape__Length":156.48810758533295,"Shape__Area":1469.4189347765159}},{"type":"Feature","id":118,"geometry":null,"properties":{"FID":118,"PROPERTY_A":"East Park Canoe House","PROPERTY_1":"2400 Kelly Drive","CAMPUS":"OFF","BUILDING__":"046","BUILDING_C":" ","Ownership_":"Leased","fact_id":37,"Shape__Length":202.28504740494932,"Shape__Area":1426.6005809782919}},{"type":"Feature","id":119,"geometry":null,"properties":{"FID":119,"PROPERTY_A":"Beech Interplex","PROPERTY_1":"1500-1508 Cecil B. Moore Avenue","CAMPUS":"MC","BUILDING__":"090","BUILDING_C":"BEECH","Ownership_":"Leased","fact_id":60,"Shape__Length":175.37371069005903,"Shape__Area":1133.2048566352241}},{"type":"Feature","id":120,"geometry":null,"properties":{"FID":120,"PROPERTY_A":"2002 N. Broad Street","PROPERTY_1":"2002 N. Broad Street","CAMPUS":"MC","BUILDING__":"135","BUILDING_C":"2002NB","Ownership_":"Temple University","fact_id":67,"Shape__Length":93.678070846693899,"Shape__Area":325.54313224784534}},{"type":"Feature","id":121,"geometry":null,"properties":{"FID":121,"PROPERTY_A":"2024-2032 N. Broad Street","PROPERTY_1":"2024-2032 N. Broad Street","CAMPUS":"MC","BUILDING__":"160","BUILDING_C":"2024NB","Ownership_":"Temple University","fact_id":75,"Shape__Length":218.73762025647588,"Shape__Area":1035.1078533349018}},{"type":"Feature","id":122,"geometry":null,"properties":{"FID":122,"PROPERTY_A":"Podiatric Medicine Building","PROPERTY_1":"148 N. 8th Street","CAMPUS":"POD","BUILDING__":"579","BUILDING_C":"PODMED","Ownership_":"Temple University","fact_id":96,"Shape__Length":333.57199102374619,"Shape__Area":4792.3238296016207}},{"type":"Feature","id":123,"geometry":null,"properties":{"FID":123,"PROPERTY_A":"Outpatient Building","PROPERTY_1":"3401-41 N. Broad Street","CAMPUS":"TUH","BUILDING__":"508","BUILDING_C":" ","Ownership_":"Commonwealth","fact_id":86,"Shape__Length":534.85120911013462,"Shape__Area":9348.9372937720964}},{"type":"Feature","id":124,"geometry":null,"properties":{"FID":124,"PROPERTY_A":"Ambler Research and Collaboration Building","PROPERTY_1":"580 Meetinghouse Road","CAMPUS":"AMB","BUILDING__":"930","BUILDING_C":"AMLBRY","Ownership_":"Temple University","fact_id":131,"Shape__Length":297.8161034600185,"Shape__Area":2922.4241245699031}},{"type":"Feature","id":125,"geometry":null,"properties":{"FID":125,"PROPERTY_A":"2000 N. Broad Street","PROPERTY_1":"2000 N. Broad Street","CAMPUS":"MC","BUILDING__":"146","BUILDING_C":" ","Ownership_":"Temple University","fact_id":70,"Shape__Length":120.83089371591089,"Shape__Area":490.13416063282631}},{"type":"Feature","id":126,"geometry":null,"properties":{"FID":126,"PROPERTY_A":"2000B N. Broad Street","PROPERTY_1":"2000B N. Broad Street","CAMPUS":"MC","BUILDING__":"147","BUILDING_C":" ","Ownership_":"Temple University","fact_id":71,"Shape__Length":69.437498104482415,"Shape__Area":244.28614165177319}},{"type":"Feature","id":127,"geometry":null,"properties":{"FID":127,"PROPERTY_A":"Bagel Hut Liacouras","PROPERTY_1":"Montgomery Avenue & Liacouras Walk","CAMPUS":"MC","BUILDING__":"170","BUILDING_C":" ","Ownership_":"Temple University","fact_id":77,"Shape__Length":21.574087409129952,"Shape__Area":29.050747149927574}},{"type":"Feature","id":128,"geometry":null,"properties":{"FID":128,"PROPERTY_A":"2034-2042 N. Broad Street 7-11","PROPERTY_1":"2034-2042 N. Broad Street","CAMPUS":"MC","BUILDING__":"159","BUILDING_C":" ","Ownership_":"Temple University Ground Leased","fact_id":74,"Shape__Length":90.096965942736972,"Shape__Area":514.51659676740712}},{"type":"Feature","id":129,"geometry":null,"properties":{"FID":129,"PROPERTY_A":"2022 N. Broad Street","PROPERTY_1":"2022 N. Broad Street","CAMPUS":"MC","BUILDING__":"N/A","BUILDING_C":" ","Ownership_":"Temple University","fact_id":136,"Shape__Length":91.130638149087517,"Shape__Area":285.2711768228865}},{"type":"Feature","id":130,"geometry":null,"properties":{"FID":130,"PROPERTY_A":"2014 N. Broad Street","PROPERTY_1":"2014 N. Broad Street","CAMPUS":"MC","BUILDING__":"N/A","BUILDING_C":" ","Ownership_":"Temple University","fact_id":137,"Shape__Length":90.657364992060906,"Shape__Area":274.19881974849545}},{"type":"Feature","id":131,"geometry":null,"properties":{"FID":131,"PROPERTY_A":"2012 N. Broad Street","PROPERTY_1":"2012 N. Broad Street","CAMPUS":"MC","BUILDING__":"N/A","BUILDING_C":" ","Ownership_":"Temple University","fact_id":138,"Shape__Length":100.58568914388756,"Shape__Area":337.48796189554673}},{"type":"Feature","id":132,"geometry":null,"properties":{"FID":132,"PROPERTY_A":"2010 N. Broad Street","PROPERTY_1":"2010 N. Broad Street","CAMPUS":"MC","BUILDING__":"N/A","BUILDING_C":" ","Ownership_":"Temple University","fact_id":139,"Shape__Length":122.65066285428942,"Shape__Area":320.77060426063059}},{"type":"Feature","id":133,"geometry":null,"properties":{"FID":133,"PROPERTY_A":"Security Kiosk Polett","PROPERTY_1":"11th Street & Polett Walk","CAMPUS":"MC","BUILDING__":"171","BUILDING_C":" ","Ownership_":"Temple University","fact_id":78,"Shape__Length":11.981519442920607,"Shape__Area":8.9418540939047286}},{"type":"Feature","id":134,"geometry":null,"properties":{"FID":134,"PROPERTY_A":"Norris Home Community Center","PROPERTY_1":"1915 N. 11th Street","CAMPUS":"MC","BUILDING__":"N/A","BUILDING_C":" ","Ownership_":"Leased","fact_id":140,"Shape__Length":118.00666664591874,"Shape__Area":665.83496217607797}},{"type":"Feature","id":135,"geometry":null,"properties":{"FID":135,"PROPERTY_A":"3216-3260 N. Broad Street","PROPERTY_1":"3216-3260 N. Broad Street","CAMPUS":"HSC","BUILDING__":"604","BUILDING_C":" ","Ownership_":"Temple University","fact_id":102,"Shape__Length":370.0246320934292,"Shape__Area":5115.6613326723354}},{"type":"Feature","id":136,"geometry":null,"properties":{"FID":136,"PROPERTY_A":"Terra Hall","PROPERTY_1":"201-211 S. Broad Street","CAMPUS":"TUCC","BUILDING__":"400","BUILDING_C":" ","Ownership_":"Temple University","fact_id":83,"Shape__Length":277.13096121645725,"Shape__Area":3702.2403409372009}},{"type":"Feature","id":137,"geometry":null,"properties":{"FID":137,"PROPERTY_A":"Temple Faculty Dental Clinic","PROPERTY_1":"545 N. Broad Street","CAMPUS":"OFF","BUILDING__":"N/A","BUILDING_C":" ","Ownership_":"Leased","fact_id":141,"Shape__Length":221.19099673067601,"Shape__Area":2698.0213130362476}},{"type":"Feature","id":138,"geometry":null,"properties":{"FID":138,"PROPERTY_A":"Braid Mill (Philadelphia Ceasefire)","PROPERTY_1":"441 High Street, Philadelphia PA 19144","CAMPUS":"OFF","BUILDING__":"N/A","BUILDING_C":" ","Ownership_":"Leased","fact_id":142,"Shape__Length":145.19238880919318,"Shape__Area":1256.9616139382679}},{"type":"Feature","id":140,"geometry":null,"properties":{"FID":140,"PROPERTY_A":"Rose Cottage","PROPERTY_1":" ","CAMPUS":"AMB","BUILDING__":"908","BUILDING_C":"AMROSE","Ownership_":"Temple University","fact_id":125,"Shape__Length":41.305482422782006,"Shape__Area":105.99918896895893}},{"type":"Feature","id":141,"geometry":null,"properties":{"FID":141,"PROPERTY_A":"Administration Building","PROPERTY_1":"580 Meetinghouse Road","CAMPUS":"AMB","BUILDING__":"901","BUILDING_C":" ","Ownership_":"Temple University","fact_id":119,"Shape__Length":91.091345869443444,"Shape__Area":277.8242706208037}},{"type":"Feature","id":143,"geometry":null,"properties":{"FID":143,"PROPERTY_A":"Atlantic Terminal","PROPERTY_1":"1801-23 N. 10th Street","CAMPUS":"MC","BUILDING__":null,"BUILDING_C":"ATLNTC","Ownership_":"Temple University Ground Leased","fact_id":39,"Shape__Length":393.44888470746696,"Shape__Area":3894.6343270360094}},{"type":"Feature","id":144,"geometry":null,"properties":{"FID":144,"PROPERTY_A":"Temple Sports Complex North Shed","PROPERTY_1":"1389 N. Broad Street","CAMPUS":"MC","BUILDING__":"162","BUILDING_C":"TUSCNS","Ownership_":"Temple University","fact_id":144,"Shape__Length":56.064016380923704,"Shape__Area":192.6686709830218}},{"type":"Feature","id":145,"geometry":null,"properties":{"FID":145,"PROPERTY_A":"Temple Sports Complex South Shed","PROPERTY_1":"1389 N. Broad Street","CAMPUS":"MC","BUILDING__":"163","BUILDING_C":"TUSCSS","Ownership_":"Temple University","fact_id":143,"Shape__Length":47.076962638843874,"Shape__Area":138.45512800730049}},{"type":"Feature","id":158,"geometry":null,"properties":{"FID":158,"PROPERTY_A":"2047-2051 N. Carlisle Street","PROPERTY_1":"2047-2051 N. Carlisle Street","CAMPUS":"MC","BUILDING__":"148","BUILDING_C":null,"Ownership_":"Temple University","fact_id":156,"Shape__Length":113.21090437146285,"Shape__Area":399.85003448083648}},{"type":"Feature","id":159,"geometry":null,"properties":{"FID":159,"PROPERTY_A":"2033 N. Carlisle Street","PROPERTY_1":"2033 N. Carlisle Street","CAMPUS":"MC","BUILDING__":"123","BUILDING_C":null,"Ownership_":"Temple University","fact_id":157,"Shape__Length":65.306021597396722,"Shape__Area":157.0658642297345}},{"type":"Feature","id":160,"geometry":null,"properties":{"FID":160,"PROPERTY_A":"1406 W. Oxford Street","PROPERTY_1":"1406 W. Oxford Street","CAMPUS":"MC","BUILDING__":null,"BUILDING_C":null,"Ownership_":"Temple University","fact_id":158,"Shape__Length":72.259778308276694,"Shape__Area":322.06829808790593}},{"type":"Feature","id":161,"geometry":null,"properties":{"FID":161,"PROPERTY_A":"1535-1537 N. Carlisle Street","PROPERTY_1":"1535-1537 N. Carlisle Street","CAMPUS":"MC","BUILDING__":"148","BUILDING_C":null,"Ownership_":"Temple University","fact_id":160,"Shape__Length":86.768381341178923,"Shape__Area":441.20662718248292}},{"type":"Feature","id":162,"geometry":null,"properties":{"FID":162,"PROPERTY_A":"1402-1404 W. Oxford Street","PROPERTY_1":"1402-1404 W. Oxford Street","CAMPUS":"MC","BUILDING__":null,"BUILDING_C":null,"Ownership_":"Temple University","fact_id":159,"Shape__Length":140.70739838741352,"Shape__Area":723.1256753071865}},{"type":"Feature","id":168,"geometry":null,"properties":{"FID":168,"PROPERTY_A":"2131 N Broad Street Archwell Health","PROPERTY_1":"2131 N. Broad Street","CAMPUS":"MC","BUILDING__":"175","BUILDING_C":null,"Ownership_":"Temple University","fact_id":161,"Shape__Length":188.96191946754575,"Shape__Area":1835.8166354994637}},{"type":"Feature","id":169,"geometry":null,"properties":{"FID":169,"PROPERTY_A":"3601 N. Broad Street","PROPERTY_1":"3601 N. Broad Street","CAMPUS":"HSC","BUILDING__":"558","BUILDING_C":null,"Ownership_":"Leased","fact_id":163,"Shape__Length":123.76071436569454,"Shape__Area":935.51148638976247}},{"type":"Feature","id":170,"geometry":null,"properties":{"FID":170,"PROPERTY_A":"Temple Sports Complex Security Kiosk","PROPERTY_1":"1389 N. Broad Street","CAMPUS":"MC","BUILDING__":"165","BUILDING_C":null,"Ownership_":"Temple University","fact_id":162,"Shape__Length":10.398976214324428,"Shape__Area":6.5480960848941763}},{"type":"Feature","id":172,"geometry":null,"properties":{"FID":172,"PROPERTY_A":"Beury Hall","PROPERTY_1":"1901-59 N. 13th Street","CAMPUS":"MC","BUILDING__":"016","BUILDING_C":"BEURY","Ownership_":"Commonwealth","fact_id":14,"Shape__Length":375.83708438305132,"Shape__Area":4756.0360861612771}},{"type":"Feature","id":173,"geometry":null,"properties":{"FID":173,"PROPERTY_A":"Caroline Kimmel Pavilion for Arts and Communication","PROPERTY_1":null,"CAMPUS":null,"BUILDING__":null,"BUILDING_C":null,"Ownership_":"Temple University","fact_id":155,"Shape__Length":377.19214028096042,"Shape__Area":6851.8899370344197}},{"type":"Feature","id":174,"geometry":null,"properties":{"FID":174,"PROPERTY_A":"Caroline Kimmel Pavilion for Arts and Communication","PROPERTY_1":null,"CAMPUS":null,"BUILDING__":null,"BUILDING_C":null,"Ownership_":"Temple University","fact_id":155,"Shape__Length":245.66377176602089,"Shape__Area":2592.8906501218821}}]}