{"type":"FeatureCollection","features":[{"type":"Feature","id":1,"geometry":{"type":"Polygon","coordinates":[[[-75.162627287238493,39.987135107773796],[-75.164903309148016,39.976676913236055],[-75.158562398899761,39.975842546982584],[-75.159540735211081,39.971449977016924],[-75.157189108392316,39.971140102526839],[-75.156284533647309,39.975551704523866],[-75.149986706600089,39.97473363970942],[-75.147733651019138,39.985222831149976],[-75.162627287238493,39.987135107773796]]]},"properties":{"OBJECTID":1,"GlobalID":"{FAD2D594-BCED-4DE8-AC79-492E5CF65AF1}","Shape__Area":2765346.7825763398,"Shape__Length":7754.605708761268,"Campus":"Main"}},{"type":"Feature","id":2,"geometry":{"type":"Polygon","coordinates":[[[-75.153260342666911,40.007880542125442],[-75.154555513880624,40.001802297357671],[-75.151604078353387,40.001384049203992],[-75.151280537527398,40.002992306795029],[-75.150376632925571,40.002882899183334],[-75.150189883957793,40.003627175759931],[-75.149138458020019,40.003830065539823],[-75.150215364670828,40.00750765739339],[-75.153260342666911,40.007880542125442]]]},"properties":{"OBJECTID":2,"GlobalID":"{80452162-CF27-440E-A607-C4C658921C7C}","Shape__Area":375486.79300438298,"Shape__Length":2689.3510084930313,"Campus":"HSC"}}]}