{
"type": "FeatureCollection",
"name": "NAC_Offices",
"crs": { "type": "name", "properties": { "name": "urn:ogc:def:crs:OGC:1.3:CRS84" } },
"features": [
{"type": "Feature", "properties": {"OBJECTID": 1, "ORGANIZATION": "ACHIEVEability", "STREET_ADDRESS": "5901 Market St, Suite 410", "ZIP_CODE": "19139", "PHONE_NUMBER": "(215) 557-8414 x8802", "HOUSING_COUNSELING": null, "NAC_AREA": "Achieveability", "NAC_COORDINATOR": "Jamila Harris-Morrison", "EMAIL_ADDRESS": "Jamila.Harris-Morrison@achieve-ability.org", "WEBSITE_URL": "https://achieveability.org", "OTHER_CONTACT": "Yolanda Mack", "OTHER_EMAIL": "yolanda.mack@achieve-ability.org"}, "geometry": {"type": "Point", "coordinates": [-75.23908802, 39.962063143]}},
{"type": "Feature", "properties": {"OBJECTID": 2, "ORGANIZATION": "Asociación Puertorriqueños en Marcha (APM)", "STREET_ADDRESS": "600 W Diamond St", "ZIP_CODE": "19122", "PHONE_NUMBER": "(215) 235-6070", "HOUSING_COUNSELING": "Foreclosure, Pre-purchase", "NAC_AREA": "Assn. De Puertorriquenos en Marcha", "NAC_COORDINATOR": "Rose Gray", "EMAIL_ADDRESS": "rose.gray@apmphila.org", "WEBSITE_URL": "https://apmphila.org", "OTHER_CONTACT": "Victoria Cubillos-Canon", "OTHER_EMAIL": "victoria.cubillos-canon@apmphila.org"}, "geometry": {"type": "Point", "coordinates": [-75.144364884, 39.982991482]}},
{"type": "Feature", "properties": {"OBJECTID": 3, "ORGANIZATION": "Empowered CDC", "STREET_ADDRESS": "7410 Buist Ave", "ZIP_CODE": "19153", "PHONE_NUMBER": "(215) 278-9782", "HOUSING_COUNSELING": null, "NAC_AREA": "Empowered CDC", "NAC_COORDINATOR": "Karen Small", "EMAIL_ADDRESS": "Staff@empoweredcdc.com", "WEBSITE_URL": "https://empoweredcdc.com", "OTHER_CONTACT": null, "OTHER_EMAIL": null}, "geometry": {"type": "Point", "coordinates": [-75.243035116, 39.910544603]}},
{"type": "Feature", "properties": {"OBJECTID": 4, "ORGANIZATION": "Episcopal Community Services of the Diocese of PA", "STREET_ADDRESS": "6006 W Girard Ave", "ZIP_CODE": "19151", "PHONE_NUMBER": "(215) 528-5147", "HOUSING_COUNSELING": null, "NAC_AREA": "Episcopal Community Services of the Diocese of PA", "NAC_COORDINATOR": "Rhena McClain", "EMAIL_ADDRESS": "rhenam@ecsphilly.org", "WEBSITE_URL": "https://ecsphilly.org", "OTHER_CONTACT": null, "OTHER_EMAIL": null}, "geometry": {"type": "Point", "coordinates": [-75.239959443, 39.969637217]}},
{"type": "Feature", "properties": {"OBJECTID": 5, "ORGANIZATION": "Frankford CDC", "STREET_ADDRESS": "4667-69 Paul St, 2nd Floor", "ZIP_CODE": "19124", "PHONE_NUMBER": "(215) 743-6580", "HOUSING_COUNSELING": null, "NAC_AREA": "Frankford CDC", "NAC_COORDINATOR": "Kimberly Washington", "EMAIL_ADDRESS": "kwashington.fcdc@gmail.com", "WEBSITE_URL": "https://frankfordcdc.org", "OTHER_CONTACT": "Christine DeJesus", "OTHER_EMAIL": "cdejesus.fcdc@gmail.com"}, "geometry": {"type": "Point", "coordinates": [-75.083696949, 40.016201243]}},
{"type": "Feature", "properties": {"OBJECTID": 6, "ORGANIZATION": "Germantown United", "STREET_ADDRESS": "5320 Germantown Ave", "ZIP_CODE": "19144", "PHONE_NUMBER": "(215) 856-4303", "HOUSING_COUNSELING": null, "NAC_AREA": "Germantown United CDC", "NAC_COORDINATOR": "Leo Dillinger IV", "EMAIL_ADDRESS": "ldillinger@germantownunitedcdc.org", "WEBSITE_URL": "https://germantownunitedcdc.org", "OTHER_CONTACT": "Rhakeim Miller", "OTHER_EMAIL": "rmiller@germantownunitedcdc.org"}, "geometry": {"type": "Point", "coordinates": [-75.169404416, 40.032173129]}},
{"type": "Feature", "properties": {"OBJECTID": 7, "ORGANIZATION": "Greater Philadelphia Alliance Social Service Center (GPASS)", "STREET_ADDRESS": "4943 N 5th St", "ZIP_CODE": "19120", "PHONE_NUMBER": "(215) 456-1662", "HOUSING_COUNSELING": "Disability, Renter, Senior, Foreclosure, Pre-purchase", "NAC_AREA": "Greater Phila. Asian Social Services", "NAC_COORDINATOR": "YoAn Kim", "EMAIL_ADDRESS": "ykim@gpasspa.org", "WEBSITE_URL": "https://gpasspa.org", "OTHER_CONTACT": "Larry White", "OTHER_EMAIL": "lwhite@gpasspa.org"}, "geometry": {"type": "Point", "coordinates": [-75.132253267, 40.02692254]}},
{"type": "Feature", "properties": {"OBJECTID": 8, "ORGANIZATION": "Greater Philadelphia Community Alliance (GPCA)", "STREET_ADDRESS": "1529 S 22nd St", "ZIP_CODE": "19146", "PHONE_NUMBER": "(215) 336-5505", "HOUSING_COUNSELING": "Foreclosure, Pre-purchase", "NAC_AREA": "Greater Philadelphia Community Alliance", "NAC_COORDINATOR": "Otis Bullock", "EMAIL_ADDRESS": "otisBullock@gpca-phila.org", "WEBSITE_URL": "https://gpca-phila.org", "OTHER_CONTACT": "Meeka Outlaw", "OTHER_EMAIL": "moutlaw@dcsphila.org"}, "geometry": {"type": "Point", "coordinates": [-75.181139509, 39.932378273]}},
{"type": "Feature", "properties": {"OBJECTID": 9, "ORGANIZATION": "HACE: Central Office", "STREET_ADDRESS": "167 W Allegheny Ave", "ZIP_CODE": "19140", "PHONE_NUMBER": "(215) 426-8025", "HOUSING_COUNSELING": "Foreclosure, Pre-purchase", "NAC_AREA": "Hispanic Assn. of Contractors and Entreprenuers", "NAC_COORDINATOR": "Maria Gonzalez", "EMAIL_ADDRESS": "mgonzalez@hacecdc.org", "WEBSITE_URL": "https://hacecdc.org", "OTHER_CONTACT": "Stasia Monteiro", "OTHER_EMAIL": "smonteiro@hacecdc.org"}, "geometry": {"type": "Point", "coordinates": [-75.131601132, 39.999387489]}},
{"type": "Feature", "properties": {"OBJECTID": 10, "ORGANIZATION": "HopePHL", "STREET_ADDRESS": "325 N 39th St", "ZIP_CODE": "19104", "PHONE_NUMBER": "(267) 777-5819", "HOUSING_COUNSELING": null, "NAC_AREA": "HopePHL", "NAC_COORDINATOR": "Kathy Desmond", "EMAIL_ADDRESS": "kdesmond@hopephl.org", "WEBSITE_URL": "https://hopephl.org", "OTHER_CONTACT": null, "OTHER_EMAIL": null}, "geometry": {"type": "Point", "coordinates": [-75.199813692, 39.960323334]}},
{"type": "Feature", "properties": {"OBJECTID": 11, "ORGANIZATION": "Hunting Park Community Revitilization Corporation", "STREET_ADDRESS": "3760 N Delhi St", "ZIP_CODE": "19140", "PHONE_NUMBER": "(215) 225-5560", "HOUSING_COUNSELING": null, "NAC_AREA": "Hunting Park Community Revitilization Corporation", "NAC_COORDINATOR": "Charles Lanier", "EMAIL_ADDRESS": "charles.lanier@huntingparknac.org", "WEBSITE_URL": "https://huntingparknac.org", "OTHER_CONTACT": "Luz Laboy", "OTHER_EMAIL": "hunting.parknac@verizon.net"}, "geometry": {"type": "Point", "coordinates": [-75.143631142, 40.009795513]}},
{"type": "Feature", "properties": {"OBJECTID": 12, "ORGANIZATION": "Lower North Philadelphia CDC", "STREET_ADDRESS": "2206 Ridge Ave, 1st Floor", "ZIP_CODE": "19121", "PHONE_NUMBER": "(215) 305-4100", "HOUSING_COUNSELING": null, "NAC_AREA": "Lower North Philadelphia CDC", "NAC_COORDINATOR": "Darnetta Arce", "EMAIL_ADDRESS": "lnpcdc@gmail.com", "WEBSITE_URL": null, "OTHER_CONTACT": null, "OTHER_EMAIL": null}, "geometry": {"type": "Point", "coordinates": [-75.171434086, 39.979585992]}},
{"type": "Feature", "properties": {"OBJECTID": 13, "ORGANIZATION": "Mt. Vernon Manor CDC", "STREET_ADDRESS": "631 N 39th St", "ZIP_CODE": "19104", "PHONE_NUMBER": "(215) 475-9492", "HOUSING_COUNSELING": null, "NAC_AREA": "Mt. Vernon Manor, Inc.", "NAC_COORDINATOR": "Michael Thorpe", "EMAIL_ADDRESS": "michael@mvmcdc.org", "WEBSITE_URL": "https://mvmcdc.org", "OTHER_CONTACT": "Lorraine Gomez", "OTHER_EMAIL": "lorraine@mvmcdc.org"}, "geometry": {"type": "Point", "coordinates": [-75.199440304, 39.964138917]}},
{"type": "Feature", "properties": {"OBJECTID": 14, "ORGANIZATION": "New Kensington CDC", "STREET_ADDRESS": "2771 Ruth St, Suite 1", "ZIP_CODE": "19134", "PHONE_NUMBER": "(215) 427-0350", "HOUSING_COUNSELING": "Foreclosure, Pre-purchase", "NAC_AREA": "New Kensington CDC", "NAC_COORDINATOR": "Bill McKinney", "EMAIL_ADDRESS": "bmckinney@nkcdc.org", "WEBSITE_URL": "https://nkcdc.org", "OTHER_CONTACT": "Katsi Miranda-Lozada", "OTHER_EMAIL": "kmiranda-lozada@nkcdc.org"}, "geometry": {"type": "Point", "coordinates": [-75.122630707, 39.990349564]}},
{"type": "Feature", "properties": {"OBJECTID": 15, "ORGANIZATION": "Nicetown CDC", "STREET_ADDRESS": "4300 Germantown Ave, 3rd Floor, Suite B", "ZIP_CODE": "19140", "PHONE_NUMBER": "(215) 329-1827", "HOUSING_COUNSELING": null, "NAC_AREA": "Nicetown CDC", "NAC_COORDINATOR": "Majeedah A. Rashid", "EMAIL_ADDRESS": "Majeedah@nicetowncdc.org", "WEBSITE_URL": "https://nicetowncdc.org", "OTHER_CONTACT": "Sandra Harmon", "OTHER_EMAIL": "sandra@nicetowncdc.org"}, "geometry": {"type": "Point", "coordinates": [-75.156084298, 40.019215335]}},
{"type": "Feature", "properties": {"OBJECTID": 16, "ORGANIZATION": "Philadelphia Chinatown Development Corporation", "STREET_ADDRESS": "301-305 N 9th St", "ZIP_CODE": "19107", "PHONE_NUMBER": "(215) 922-6156", "HOUSING_COUNSELING": "Pre-purchase", "NAC_AREA": "Philadelphia Chinatown Development Corp.", "NAC_COORDINATOR": "John Chin", "EMAIL_ADDRESS": "jchin@chinatown-pcdc.org", "WEBSITE_URL": "https://chinatown-pcdc.org", "OTHER_CONTACT": "Yue Wu", "OTHER_EMAIL": "ywu@chinatown-pcdc.org"}, "geometry": {"type": "Point", "coordinates": [-75.153691568, 39.957303158]}},
{"type": "Feature", "properties": {"OBJECTID": 17, "ORGANIZATION": "South Kensington Community Partners, Inc.", "STREET_ADDRESS": "1529 N American St, Studio 107", "ZIP_CODE": "19122", "PHONE_NUMBER": "(215) 427-3463", "HOUSING_COUNSELING": null, "NAC_AREA": "South Kensington Community Partners, Inc.", "NAC_COORDINATOR": "Eileen Divringi", "EMAIL_ADDRESS": "info@southkensingtoncommunity.org", "WEBSITE_URL": "https://southkensingtoncommunity.org", "OTHER_CONTACT": "Rasheed Davis", "OTHER_EMAIL": null}, "geometry": {"type": "Point", "coordinates": [-75.139536106, 39.974576046]}},
{"type": "Feature", "properties": {"OBJECTID": 18, "ORGANIZATION": "Southwest CDC", "STREET_ADDRESS": "6328 Paschall Ave", "ZIP_CODE": "19142", "PHONE_NUMBER": "(215) 729-7441", "HOUSING_COUNSELING": "Foreclosure, Pre-purchase", "NAC_AREA": "Southwest CDC", "NAC_COORDINATOR": "Donna Henry", "EMAIL_ADDRESS": "donna@southwestcdc.org", "WEBSITE_URL": "https://southwestcdc.org", "OTHER_CONTACT": "Mark Harrell", "OTHER_EMAIL": "mark@southwestcdc.org"}, "geometry": {"type": "Point", "coordinates": [-75.231002916, 39.925602582]}},
{"type": "Feature", "properties": {"OBJECTID": 19, "ORGANIZATION": "Strawberry Mansion Neighborhood Action Center, Inc.", "STREET_ADDRESS": "2829 W Diamond St", "ZIP_CODE": "19121", "PHONE_NUMBER": "(267) 278-3295", "HOUSING_COUNSELING": "Foreclosure", "NAC_AREA": "Strawberry Mansion Neighborhood Action Center", "NAC_COORDINATOR": "Lenora Jackson-Evans", "EMAIL_ADDRESS": "LenoraJacksonevans@strawberrymansionnac.org", "WEBSITE_URL": "https://strawberrymansioncdc.org", "OTHER_CONTACT": "Lawrence Battle", "OTHER_EMAIL": "lawrencebattlejr@strawberrymansionnac.org"}, "geometry": {"type": "Point", "coordinates": [-75.179738828, 39.987936338]}},
{"type": "Feature", "properties": {"OBJECTID": 20, "ORGANIZATION": "Tacony CDC", "STREET_ADDRESS": "4819 Longshore Ave, Unit C", "ZIP_CODE": "19135", "PHONE_NUMBER": "(267) 276-2586", "HOUSING_COUNSELING": null, "NAC_AREA": "Tacony CDC", "NAC_COORDINATOR": "Xhulio Binjaku", "EMAIL_ADDRESS": "director@taconycdc.org", "WEBSITE_URL": "https://visittacony.com", "OTHER_CONTACT": null, "OTHER_EMAIL": null}, "geometry": {"type": "Point", "coordinates": [-75.041905995, 40.024607529]}},
{"type": "Feature", "properties": {"OBJECTID": 21, "ORGANIZATION": "The Enterprise Center CDC", "STREET_ADDRESS": "4548 Market St", "ZIP_CODE": "19139", "PHONE_NUMBER": "(215) 594-0228", "HOUSING_COUNSELING": null, "NAC_AREA": "The Enterprise Center CDC", "NAC_COORDINATOR": "Kim Carter", "EMAIL_ADDRESS": "Kcarter@theenterprisecenter.com", "WEBSITE_URL": "https://theenterprisecenter.com", "OTHER_CONTACT": "Jamar Bordley", "OTHER_EMAIL": "jbordley@theenterprisecenter.com"}, "geometry": {"type": "Point", "coordinates": [-75.212641013, 39.95821751]}},
{"type": "Feature", "properties": {"OBJECTID": 22, "ORGANIZATION": "Tioga United, Inc.", "STREET_ADDRESS": "1539 W Venango St", "ZIP_CODE": "19140", "PHONE_NUMBER": "(215) 639-6912", "HOUSING_COUNSELING": null, "NAC_AREA": "Tioga United, Inc.", "NAC_COORDINATOR": "David Smith", "EMAIL_ADDRESS": "info@tiogaunitednac.org", "WEBSITE_URL": "https://tu-nac.org", "OTHER_CONTACT": "Elizabeth Stokes", "OTHER_EMAIL": "tiogaunited@hotmail.com"}, "geometry": {"type": "Point", "coordinates": [-75.154610868, 40.008237811]}},
{"type": "Feature", "properties": {"OBJECTID": 23, "ORGANIZATION": "UAC/Parkside Association of Philadelphia", "STREET_ADDRESS": "1719 N 52nd St, Suite G", "ZIP_CODE": "19131", "PHONE_NUMBER": "(215) 877-1198", "HOUSING_COUNSELING": null, "NAC_AREA": "UAC/Parkside Association of Philadelphia", "NAC_COORDINATOR": "Lucinda Hudson", "EMAIL_ADDRESS": "lhudson@parksideassociation.org", "WEBSITE_URL": "https://uac.org", "OTHER_CONTACT": "Shakia Boulware", "OTHER_EMAIL": "sboulware@parksideassociation.org"}, "geometry": {"type": "Point", "coordinates": [-75.223957287, 39.981070216]}},
{"type": "Feature", "properties": {"OBJECTID": 24, "ORGANIZATION": "Whitman Council, Inc.", "STREET_ADDRESS": "2455 S 3rd St", "ZIP_CODE": "19148", "PHONE_NUMBER": "(215) 468-4056", "HOUSING_COUNSELING": null, "NAC_AREA": "Whitman Council, Inc.", "NAC_COORDINATOR": "Mark Kapczynski", "EMAIL_ADDRESS": "mkapkkz@msn.com", "WEBSITE_URL": "https://whitmancouncil.com", "OTHER_CONTACT": "Maryanne Daniels", "OTHER_EMAIL": "whitmancouncilinc@gmail.com"}, "geometry": {"type": "Point", "coordinates": [-75.152374051, 39.917143416]}}
]
}
