{"type":"FeatureCollection","features":[{"type":"Feature","id":1,"geometry":{"type":"Point","coordinates":[-75.14833589999995,40.00339770000005]},"properties":{"OBJECTID":1,"Name":"Mary McLeod Bethune School","FolderPath":"Potential Priority Impact Area and North Philly Partnership Area/Bethune Catchment Area","SymbolID":0,"AltMode":-1,"Base":0,"Snippet":"","PopupInfo":"","HasLabel":-1,"LabelID":0}},{"type":"Feature","id":2,"geometry":{"type":"Point","coordinates":[-75.159108899999978,39.985729500000048]},"properties":{"OBJECTID":2,"Name":"Dr. Tanner G. Duckrey Public School","FolderPath":"Potential Priority Impact Area and North Philly Partnership Area/Duckrey Catchment Area","SymbolID":1,"AltMode":-1,"Base":0,"Snippet":"","PopupInfo":"","HasLabel":-1,"LabelID":0}},{"type":"Feature","id":3,"geometry":{"type":"Point","coordinates":[-75.15408199999996,39.979273700000078]},"properties":{"OBJECTID":3,"Name":"Paul L Dunbar School","FolderPath":"Potential Priority Impact Area and North Philly Partnership Area/Dunbar Catchment Area","SymbolID":2,"AltMode":-1,"Base":0,"Snippet":"","PopupInfo":"","HasLabel":-1,"LabelID":0}}]}