{"type":"FeatureCollection","features":[{"type":"Feature","id":1,"geometry":{"type":"Point","coordinates":[-75.15696494998285,39.978110882799392]},"properties":{"Police_Force":"Temple Police","FID":1}},{"type":"Feature","id":2,"geometry":{"type":"Point","coordinates":[-75.153306417257824,39.979812691173606]},"properties":{"Police_Force":"Temple Police","FID":2}},{"type":"Feature","id":3,"geometry":{"type":"Point","coordinates":[-75.151930443482627,39.980330624470213]},"properties":{"Police_Force":"Temple Police","FID":3}},{"type":"Feature","id":4,"geometry":{"type":"Point","coordinates":[-75.156329266155197,39.981705594641099]},"properties":{"Police_Force":"Temple Police","FID":4}},{"type":"Feature","id":5,"geometry":{"type":"Point","coordinates":[-75.160221151546608,39.979101554288214]},"properties":{"Police_Force":"Temple Police","FID":5}},{"type":"Feature","id":7,"geometry":{"type":"Point","coordinates":[-75.150888562144743,40.005827719078582]},"properties":{"Police_Force":"Temple Police","FID":7}},{"type":"Feature","id":8,"geometry":{"type":"Point","coordinates":[-75.1912263032537,40.165350693659825]},"properties":{"Police_Force":"Temple Police","FID":8}}]}